CCSDS_OMM_VERS = 2.0
CREATION_DATE  = 
ORIGINATOR     = 

OBJECT_NAME    = UNKNOWN
OBJECT_ID      = 
CENTER_NAME    = EARTH
REF_FRAME      = TEME
TIME_SYSTEM    = UTC
MEAN_ELEMENT_THEORY = SGP/SGP4

EPOCH          = 2026-01-04T06:11:31.783200
MEAN_MOTION    = 13.88097736
ECCENTRICITY   = .0061071
INCLINATION    = 82.8049
RA_OF_ASC_NODE = 11.2985
ARG_OF_PERICENTER = 301.2759
MEAN_ANOMALY   = 73.6142

EPHEMERIS_TYPE = 0
CLASSIFICATION_TYPE = U
NORAD_CAT_ID   = 81865
ELEMENT_SET_NO = 999
REV_AT_EPOCH   = 61167
BSTAR          = .18015E-2
MEAN_MOTION_DOT = .2194E-4
MEAN_MOTION_DDOT = 0

CCSDS_OMM_VERS = 2.0
CREATION_DATE  = 
ORIGINATOR     = 

OBJECT_NAME    = UNKNOWN
OBJECT_ID      = 
CENTER_NAME    = EARTH
REF_FRAME      = TEME
TIME_SYSTEM    = UTC
MEAN_ELEMENT_THEORY = SGP/SGP4

EPOCH          = 2026-01-04T04:15:14.528736
MEAN_MOTION    = 13.76753646
ECCENTRICITY   = .0020236
INCLINATION    = 100.0491
RA_OF_ASC_NODE = 353.7198
ARG_OF_PERICENTER = 210.7052
MEAN_ANOMALY   = 149.2913

EPHEMERIS_TYPE = 0
CLASSIFICATION_TYPE = U
NORAD_CAT_ID   = 81893
ELEMENT_SET_NO = 999
REV_AT_EPOCH   = 60716
BSTAR          = .16893E-2
MEAN_MOTION_DOT = .1614E-4
MEAN_MOTION_DDOT = 0

CCSDS_OMM_VERS = 2.0
CREATION_DATE  = 
ORIGINATOR     = 

OBJECT_NAME    = UNKNOWN
OBJECT_ID      = 
CENTER_NAME    = EARTH
REF_FRAME      = TEME
TIME_SYSTEM    = UTC
MEAN_ELEMENT_THEORY = SGP/SGP4

EPOCH          = 2026-01-02T06:13:58.780704
MEAN_MOTION    = 13.20263007
ECCENTRICITY   = .0182913
INCLINATION    = 102.4155
RA_OF_ASC_NODE = 112.7655
ARG_OF_PERICENTER = 171.7155
MEAN_ANOMALY   = 188.7042

EPHEMERIS_TYPE = 0
CLASSIFICATION_TYPE = U
NORAD_CAT_ID   = 81899
ELEMENT_SET_NO = 999
REV_AT_EPOCH   = 58169
BSTAR          = .48807E-2
MEAN_MOTION_DOT = .2094E-4
MEAN_MOTION_DDOT = 0

CCSDS_OMM_VERS = 2.0
CREATION_DATE  = 
ORIGINATOR     = 

OBJECT_NAME    = UNKNOWN
OBJECT_ID      = 
CENTER_NAME    = EARTH
REF_FRAME      = TEME
TIME_SYSTEM    = UTC
MEAN_ELEMENT_THEORY = SGP/SGP4

EPOCH          = 2026-01-04T16:20:25.870272
MEAN_MOTION    = 13.15224832
ECCENTRICITY   = .0844358
INCLINATION    = 65.7089
RA_OF_ASC_NODE = 1.0574
ARG_OF_PERICENTER = 104.6171
MEAN_ANOMALY   = 264.9936

EPHEMERIS_TYPE = 0
CLASSIFICATION_TYPE = U
NORAD_CAT_ID   = 81921
ELEMENT_SET_NO = 999
REV_AT_EPOCH   = 2880
BSTAR          = .56756E-3
MEAN_MOTION_DOT = .1329E-4
MEAN_MOTION_DDOT = 0

CCSDS_OMM_VERS = 2.0
CREATION_DATE  = 
ORIGINATOR     = 

OBJECT_NAME    = UNKNOWN
OBJECT_ID      = 
CENTER_NAME    = EARTH
REF_FRAME      = TEME
TIME_SYSTEM    = UTC
MEAN_ELEMENT_THEORY = SGP/SGP4

EPOCH          = 2026-01-02T14:03:19.014336
MEAN_MOTION    = 12.42586877
ECCENTRICITY   = .0673549
INCLINATION    = 66.4176
RA_OF_ASC_NODE = 112.5571
ARG_OF_PERICENTER = 341.2440
MEAN_ANOMALY   = 27.1271

EPHEMERIS_TYPE = 0
CLASSIFICATION_TYPE = U
NORAD_CAT_ID   = 81946
ELEMENT_SET_NO = 999
REV_AT_EPOCH   = 55047
BSTAR          = .15766E-2
MEAN_MOTION_DOT = .431E-5
MEAN_MOTION_DDOT = 0

CCSDS_OMM_VERS = 2.0
CREATION_DATE  = 
ORIGINATOR     = 

OBJECT_NAME    = UNKNOWN
OBJECT_ID      = 
CENTER_NAME    = EARTH
REF_FRAME      = TEME
TIME_SYSTEM    = UTC
MEAN_ELEMENT_THEORY = SGP/SGP4

EPOCH          = 2026-01-02T13:39:22.523616
MEAN_MOTION    = 14.53024728
ECCENTRICITY   = .0373171
INCLINATION    = 66.0755
RA_OF_ASC_NODE = 110.0643
ARG_OF_PERICENTER = 129.7196
MEAN_ANOMALY   = 233.7438

EPHEMERIS_TYPE = 0
CLASSIFICATION_TYPE = U
NORAD_CAT_ID   = 81947
ELEMENT_SET_NO = 999
REV_AT_EPOCH   = 63404
BSTAR          = .10837E-2
MEAN_MOTION_DOT = .11319E-3
MEAN_MOTION_DDOT = 0

CCSDS_OMM_VERS = 2.0
CREATION_DATE  = 
ORIGINATOR     = 

OBJECT_NAME    = UNKNOWN
OBJECT_ID      = 
CENTER_NAME    = EARTH
REF_FRAME      = TEME
TIME_SYSTEM    = UTC
MEAN_ELEMENT_THEORY = SGP/SGP4

EPOCH          = 2026-01-03T22:59:08.787840
MEAN_MOTION    = 13.95811901
ECCENTRICITY   = .0029736
INCLINATION    = 66.5826
RA_OF_ASC_NODE = 203.6046
ARG_OF_PERICENTER = 67.9678
MEAN_ANOMALY   = 292.4556

EPHEMERIS_TYPE = 0
CLASSIFICATION_TYPE = U
NORAD_CAT_ID   = 81964
ELEMENT_SET_NO = 999
REV_AT_EPOCH   = 61714
BSTAR          = .31481E-3
MEAN_MOTION_DOT = .353E-5
MEAN_MOTION_DDOT = 0

CCSDS_OMM_VERS = 2.0
CREATION_DATE  = 
ORIGINATOR     = 

OBJECT_NAME    = UNKNOWN
OBJECT_ID      = 
CENTER_NAME    = EARTH
REF_FRAME      = TEME
TIME_SYSTEM    = UTC
MEAN_ELEMENT_THEORY = SGP/SGP4

EPOCH          = 2026-01-03T16:00:13.452768
MEAN_MOTION    = 15.11586101
ECCENTRICITY   = .0006137
INCLINATION    = 86.6868
RA_OF_ASC_NODE = 143.9224
ARG_OF_PERICENTER = 93.9489
MEAN_ANOMALY   = 266.2451

EPHEMERIS_TYPE = 0
CLASSIFICATION_TYPE = U
NORAD_CAT_ID   = 81969
ELEMENT_SET_NO = 999
REV_AT_EPOCH   = 44348
BSTAR          = .11592E-2
MEAN_MOTION_DOT = .19733E-3
MEAN_MOTION_DDOT = 0

CCSDS_OMM_VERS = 2.0
CREATION_DATE  = 
ORIGINATOR     = 

OBJECT_NAME    = UNKNOWN
OBJECT_ID      = 
CENTER_NAME    = EARTH
REF_FRAME      = TEME
TIME_SYSTEM    = UTC
MEAN_ELEMENT_THEORY = SGP/SGP4

EPOCH          = 2025-12-25T12:54:10.343808
MEAN_MOTION    = 14.03903016
ECCENTRICITY   = .0520422
INCLINATION    = 65.7467
RA_OF_ASC_NODE = 90.5357
ARG_OF_PERICENTER = 290.7377
MEAN_ANOMALY   = 63.8680

EPHEMERIS_TYPE = 0
CLASSIFICATION_TYPE = U
NORAD_CAT_ID   = 81995
ELEMENT_SET_NO = 999
REV_AT_EPOCH   = 60602
BSTAR          = .11153E-2
MEAN_MOTION_DOT = .5942E-4
MEAN_MOTION_DDOT = 0

CCSDS_OMM_VERS = 2.0
CREATION_DATE  = 
ORIGINATOR     = 

OBJECT_NAME    = UNKNOWN
OBJECT_ID      = 
CENTER_NAME    = EARTH
REF_FRAME      = TEME
TIME_SYSTEM    = UTC
MEAN_ELEMENT_THEORY = SGP/SGP4

EPOCH          = 2026-01-05T16:13:07.392000
MEAN_MOTION    = 14.32653326
ECCENTRICITY   = .0231155
INCLINATION    = 97.9293
RA_OF_ASC_NODE = 157.3680
ARG_OF_PERICENTER = 11.7395
MEAN_ANOMALY   = 348.9053

EPHEMERIS_TYPE = 0
CLASSIFICATION_TYPE = U
NORAD_CAT_ID   = 82043
ELEMENT_SET_NO = 999
REV_AT_EPOCH   = 57727
BSTAR          = .58135E-3
MEAN_MOTION_DOT = .2081E-4
MEAN_MOTION_DDOT = 0

CCSDS_OMM_VERS = 2.0
CREATION_DATE  = 
ORIGINATOR     = 

OBJECT_NAME    = UNKNOWN
OBJECT_ID      = 
CENTER_NAME    = EARTH
REF_FRAME      = TEME
TIME_SYSTEM    = UTC
MEAN_ELEMENT_THEORY = SGP/SGP4

EPOCH          = 2026-01-03T23:46:39.157536
MEAN_MOTION    = 14.36262244
ECCENTRICITY   = .0093501
INCLINATION    = 98.7471
RA_OF_ASC_NODE = 94.8161
ARG_OF_PERICENTER = 194.0641
MEAN_ANOMALY   = 165.7938

EPHEMERIS_TYPE = 0
CLASSIFICATION_TYPE = U
NORAD_CAT_ID   = 82051
ELEMENT_SET_NO = 999
REV_AT_EPOCH   = 57560
BSTAR          = .36944E-2
MEAN_MOTION_DOT = .11314E-3
MEAN_MOTION_DDOT = 0

CCSDS_OMM_VERS = 2.0
CREATION_DATE  = 
ORIGINATOR     = 

OBJECT_NAME    = UNKNOWN
OBJECT_ID      = 
CENTER_NAME    = EARTH
REF_FRAME      = TEME
TIME_SYSTEM    = UTC
MEAN_ELEMENT_THEORY = SGP/SGP4

EPOCH          = 2026-01-04T00:05:58.084800
MEAN_MOTION    = 14.39016734
ECCENTRICITY   = .0206738
INCLINATION    = 97.7511
RA_OF_ASC_NODE = 83.0063
ARG_OF_PERICENTER = 219.4972
MEAN_ANOMALY   = 139.0996

EPHEMERIS_TYPE = 0
CLASSIFICATION_TYPE = U
NORAD_CAT_ID   = 82073
ELEMENT_SET_NO = 999
REV_AT_EPOCH   = 57832
BSTAR          = .15313E-2
MEAN_MOTION_DOT = .603E-4
MEAN_MOTION_DDOT = 0

