UNKNOWN                 
1 81865U          26004.25800675  .00002194  00000+0  18015-2 0  9995
2 81865  82.8049  11.2985 0061071 301.2759  73.6142 13.88097736611675
UNKNOWN                 
1 81893U          26004.17725149  .00001614  00000+0  16893-2 0  9997
2 81893 100.0491 353.7198 0020236 210.7052 149.2913 13.76753646607169
UNKNOWN                 
1 81899U          26002.25970811  .00002094  00000+0  48807-2 0  9991
2 81899 102.4155 112.7655 0182913 171.7155 188.7042 13.20263007581696
UNKNOWN                 
1 81921U          26004.68085498  .00001329  00000+0  56756-3 0  9997
2 81921  65.7089   1.0574 0844358 104.6171 264.9936 13.15224832 28805
UNKNOWN                 
1 81946U          26002.58563674  .00000431  00000+0  15766-2 0  9996
2 81946  66.4176 112.5571 0673549 341.2440  27.1271 12.42586877550475
UNKNOWN                 
1 81947U          26002.56901069  .00011319  00000+0  10837-2 0  9990
2 81947  66.0755 110.0643 0373171 129.7196 233.7438 14.53024728634045
UNKNOWN                 
1 81964U          26003.95774060  .00000353  00000+0  31481-3 0  9997
2 81964  66.5826 203.6046 0029736  67.9678 292.4556 13.95811901617144
UNKNOWN                 
1 81969U          26003.66682237  .00019733  00000+0  11592-2 0  9996
2 81969  86.6868 143.9224 0006137  93.9489 266.2451 15.11586101443489
UNKNOWN                 
1 81995U          25359.53761972  .00005942  00000+0  11153-2 0  9998
2 81995  65.7467  90.5357 0520422 290.7377  63.8680 14.03903016606020
UNKNOWN                 
1 82043U          26005.67578000  .00002081  00000+0  58135-3 0  9998
2 82043  97.9293 157.3680 0231155  11.7395 348.9053 14.32653326577276
UNKNOWN                 
1 82051U          26003.99073099  .00011314  00000+0  36944-2 0  9990
2 82051  98.7471  94.8161 0093501 194.0641 165.7938 14.36262244575602
UNKNOWN                 
1 82073U          26004.00414450  .00006030  00000+0  15313-2 0  9993
2 82073  97.7511  83.0063 0206738 219.4972 139.0996 14.39016734578322
